GSLV R/B                
1 54149U 22138AN  26061.56712641  .00004827  00000+0  41840-3 0  9996
2 54149  87.3884 168.7456 0021954 171.4009 188.7603 14.96710984182860
XRISM                   
1 57800U 23137A   26061.44232442  .00007588  00000+0  43247-3 0  9996
2 57800  31.0033 330.5366 0008218 325.6568  34.3539 15.11397969136695
ACS3                    
1 59588U 24077B   26061.58467861  .00020291  00000+0  16466-1 0  9992
2 59588  97.2116   4.2937 0054515  95.9315 264.8066 13.89232454 93218
SZ-21 MODULE            
1 66515U 25246C   26061.55898935  .00039531  00000+0  34908-3 0  9996
2 66515  41.4734 247.2373 0001468 286.7563  73.3117 15.67907744 16955
