CCSDS_OMM_VERS = 2.0
CREATION_DATE  = 
ORIGINATOR     = 

OBJECT_NAME    = GSLV R/B
OBJECT_ID      = 2022-138AN
CENTER_NAME    = EARTH
REF_FRAME      = TEME
TIME_SYSTEM    = UTC
MEAN_ELEMENT_THEORY = SGP/SGP4

EPOCH          = 2026-03-02T13:36:39.721824
MEAN_MOTION    = 14.96710984
ECCENTRICITY   = .00219545
INCLINATION    = 87.3884
RA_OF_ASC_NODE = 168.7456
ARG_OF_PERICENTER = 171.4009
MEAN_ANOMALY   = 188.7603

EPHEMERIS_TYPE = 0
CLASSIFICATION_TYPE = U
NORAD_CAT_ID   = 54149
ELEMENT_SET_NO = 999
REV_AT_EPOCH   = 18286
BSTAR          = .41840257E-3
MEAN_MOTION_DOT = .4827E-4
MEAN_MOTION_DDOT = 0

CCSDS_OMM_VERS = 2.0
CREATION_DATE  = 
ORIGINATOR     = 

OBJECT_NAME    = XRISM
OBJECT_ID      = 2023-137A
CENTER_NAME    = EARTH
REF_FRAME      = TEME
TIME_SYSTEM    = UTC
MEAN_ELEMENT_THEORY = SGP/SGP4

EPOCH          = 2026-03-02T10:36:56.829888
MEAN_MOTION    = 15.11397969
ECCENTRICITY   = .00082187
INCLINATION    = 31.0033
RA_OF_ASC_NODE = 330.5366
ARG_OF_PERICENTER = 325.6568
MEAN_ANOMALY   = 34.3539

EPHEMERIS_TYPE = 0
CLASSIFICATION_TYPE = U
NORAD_CAT_ID   = 57800
ELEMENT_SET_NO = 999
REV_AT_EPOCH   = 13669
BSTAR          = .43247208E-3
MEAN_MOTION_DOT = .7588E-4
MEAN_MOTION_DDOT = 0

CCSDS_OMM_VERS = 2.0
CREATION_DATE  = 
ORIGINATOR     = 

OBJECT_NAME    = ACS3
OBJECT_ID      = 2024-077B
CENTER_NAME    = EARTH
REF_FRAME      = TEME
TIME_SYSTEM    = UTC
MEAN_ELEMENT_THEORY = SGP/SGP4

EPOCH          = 2026-03-02T14:01:56.231904
MEAN_MOTION    = 13.89232454
ECCENTRICITY   = .00545158
INCLINATION    = 97.2116
RA_OF_ASC_NODE = 4.2937
ARG_OF_PERICENTER = 95.9315
MEAN_ANOMALY   = 264.8066

EPHEMERIS_TYPE = 0
CLASSIFICATION_TYPE = U
NORAD_CAT_ID   = 59588
ELEMENT_SET_NO = 999
REV_AT_EPOCH   = 9321
BSTAR          = .16466434E-1
MEAN_MOTION_DOT = .20291E-3
MEAN_MOTION_DDOT = 0

CCSDS_OMM_VERS = 2.0
CREATION_DATE  = 
ORIGINATOR     = 

OBJECT_NAME    = SZ-21 MODULE
OBJECT_ID      = 2025-246C
CENTER_NAME    = EARTH
REF_FRAME      = TEME
TIME_SYSTEM    = UTC
MEAN_ELEMENT_THEORY = SGP/SGP4

EPOCH          = 2026-03-02T13:24:56.679840
MEAN_MOTION    = 15.67907744
ECCENTRICITY   = .00014689
INCLINATION    = 41.4734
RA_OF_ASC_NODE = 247.2373
ARG_OF_PERICENTER = 286.7563
MEAN_ANOMALY   = 73.3117

EPHEMERIS_TYPE = 0
CLASSIFICATION_TYPE = U
NORAD_CAT_ID   = 66515
ELEMENT_SET_NO = 999
REV_AT_EPOCH   = 1695
BSTAR          = .34908074E-3
MEAN_MOTION_DOT = .39531E-3
MEAN_MOTION_DDOT = 0

